CCSDS_OMM_VERS = 2.0
CREATION_DATE  = 
ORIGINATOR     = 

OBJECT_NAME    = STARLINK-35636
OBJECT_ID      = 2025-240Q
CENTER_NAME    = EARTH
REF_FRAME      = TEME
TIME_SYSTEM    = UTC
MEAN_ELEMENT_THEORY = SGP/SGP4

EPOCH          = 2025-11-19T22:00:01.999584
MEAN_MOTION    = 15.39612705
ECCENTRICITY   = .00013441
INCLINATION    = 53.1590
RA_OF_ASC_NODE = 214.1539
ARG_OF_PERICENTER = 87.5181
MEAN_ANOMALY   = 181.2145

EPHEMERIS_TYPE = 0
CLASSIFICATION_TYPE = U
NORAD_CAT_ID   = 66160
ELEMENT_SET_NO = 999
REV_AT_EPOCH   = 523
BSTAR          = .33064134E-3
MEAN_MOTION_DOT = .12845E-3
MEAN_MOTION_DDOT = 0

CCSDS_OMM_VERS = 2.0
CREATION_DATE  = 
ORIGINATOR     = 

OBJECT_NAME    = STARLINK-35635
OBJECT_ID      = 2025-240R
CENTER_NAME    = EARTH
REF_FRAME      = TEME
TIME_SYSTEM    = UTC
MEAN_ELEMENT_THEORY = SGP/SGP4

EPOCH          = 2025-11-19T22:00:01.999584
MEAN_MOTION    = 15.39611356
ECCENTRICITY   = .00014701
INCLINATION    = 53.1592
RA_OF_ASC_NODE = 214.2047
ARG_OF_PERICENTER = 85.4332
MEAN_ANOMALY   = 157.5490

EPHEMERIS_TYPE = 0
CLASSIFICATION_TYPE = U
NORAD_CAT_ID   = 66161
ELEMENT_SET_NO = 999
REV_AT_EPOCH   = 523
BSTAR          = .35713823E-3
MEAN_MOTION_DOT = .13908E-3
MEAN_MOTION_DDOT = 0

CCSDS_OMM_VERS = 2.0
CREATION_DATE  = 
ORIGINATOR     = 

OBJECT_NAME    = STARLINK-35633
OBJECT_ID      = 2025-240S
CENTER_NAME    = EARTH
REF_FRAME      = TEME
TIME_SYSTEM    = UTC
MEAN_ELEMENT_THEORY = SGP/SGP4

EPOCH          = 2025-11-19T21:07:39.573696
MEAN_MOTION    = 15.49328824
ECCENTRICITY   = .00008272
INCLINATION    = 53.1598
RA_OF_ASC_NODE = 213.7387
ARG_OF_PERICENTER = 98.5362
MEAN_ANOMALY   = 261.5741

EPHEMERIS_TYPE = 0
CLASSIFICATION_TYPE = U
NORAD_CAT_ID   = 66162
ELEMENT_SET_NO = 999
REV_AT_EPOCH   = 516
BSTAR          = .10076023E-2
MEAN_MOTION_DOT = .56032E-3
MEAN_MOTION_DDOT = 0

CCSDS_OMM_VERS = 2.0
CREATION_DATE  = 
ORIGINATOR     = 

OBJECT_NAME    = STARLINK-35607
OBJECT_ID      = 2025-240T
CENTER_NAME    = EARTH
REF_FRAME      = TEME
TIME_SYSTEM    = UTC
MEAN_ELEMENT_THEORY = SGP/SGP4

EPOCH          = 2025-11-19T21:07:09.833952
MEAN_MOTION    = 15.49339033
ECCENTRICITY   = .00008135
INCLINATION    = 53.1598
RA_OF_ASC_NODE = 213.7364
ARG_OF_PERICENTER = 93.3914
MEAN_ANOMALY   = 266.7188

EPHEMERIS_TYPE = 0
CLASSIFICATION_TYPE = U
NORAD_CAT_ID   = 66163
ELEMENT_SET_NO = 999
REV_AT_EPOCH   = 516
BSTAR          = .13715394E-2
MEAN_MOTION_DOT = .76664E-3
MEAN_MOTION_DDOT = 0

CCSDS_OMM_VERS = 2.0
CREATION_DATE  = 
ORIGINATOR     = 

OBJECT_NAME    = STARLINK-35614
OBJECT_ID      = 2025-240U
CENTER_NAME    = EARTH
REF_FRAME      = TEME
TIME_SYSTEM    = UTC
MEAN_ELEMENT_THEORY = SGP/SGP4

EPOCH          = 2025-11-19T21:06:10.393344
MEAN_MOTION    = 15.49347623
ECCENTRICITY   = .00012936
INCLINATION    = 53.1597
RA_OF_ASC_NODE = 213.7300
ARG_OF_PERICENTER = 86.8698
MEAN_ANOMALY   = 273.2459

EPHEMERIS_TYPE = 0
CLASSIFICATION_TYPE = U
NORAD_CAT_ID   = 66164
ELEMENT_SET_NO = 999
REV_AT_EPOCH   = 516
BSTAR          = .86751074E-3
MEAN_MOTION_DOT = .48163E-3
MEAN_MOTION_DDOT = 0

CCSDS_OMM_VERS = 2.0
CREATION_DATE  = 
ORIGINATOR     = 

OBJECT_NAME    = STARLINK-35575
OBJECT_ID      = 2025-240V
CENTER_NAME    = EARTH
REF_FRAME      = TEME
TIME_SYSTEM    = UTC
MEAN_ELEMENT_THEORY = SGP/SGP4

EPOCH          = 2025-11-19T21:06:40.318848
MEAN_MOTION    = 15.49329052
ECCENTRICITY   = .0001132
INCLINATION    = 53.1599
RA_OF_ASC_NODE = 213.7342
ARG_OF_PERICENTER = 84.3057
MEAN_ANOMALY   = 275.8081

EPHEMERIS_TYPE = 0
CLASSIFICATION_TYPE = U
NORAD_CAT_ID   = 66165
ELEMENT_SET_NO = 999
REV_AT_EPOCH   = 516
BSTAR          = .10935712E-2
MEAN_MOTION_DOT = .6089E-3
MEAN_MOTION_DDOT = 0

CCSDS_OMM_VERS = 2.0
CREATION_DATE  = 
ORIGINATOR     = 

OBJECT_NAME    = STARLINK-35624
OBJECT_ID      = 2025-240W
CENTER_NAME    = EARTH
REF_FRAME      = TEME
TIME_SYSTEM    = UTC
MEAN_ELEMENT_THEORY = SGP/SGP4

EPOCH          = 2025-11-19T21:05:11.120352
MEAN_MOTION    = 15.49331712
ECCENTRICITY   = .00006744
INCLINATION    = 53.1597
RA_OF_ASC_NODE = 213.7273
ARG_OF_PERICENTER = 97.8898
MEAN_ANOMALY   = 262.2188

EPHEMERIS_TYPE = 0
CLASSIFICATION_TYPE = U
NORAD_CAT_ID   = 66166
ELEMENT_SET_NO = 999
REV_AT_EPOCH   = 516
BSTAR          = .10706327E-2
MEAN_MOTION_DOT = .59599E-3
MEAN_MOTION_DDOT = 0

CCSDS_OMM_VERS = 2.0
CREATION_DATE  = 
ORIGINATOR     = 

OBJECT_NAME    = STARLINK-35641
OBJECT_ID      = 2025-240X
CENTER_NAME    = EARTH
REF_FRAME      = TEME
TIME_SYSTEM    = UTC
MEAN_ELEMENT_THEORY = SGP/SGP4

EPOCH          = 2025-11-19T21:05:40.706304
MEAN_MOTION    = 15.49336234
ECCENTRICITY   = .00007716
INCLINATION    = 53.1594
RA_OF_ASC_NODE = 213.7286
ARG_OF_PERICENTER = 112.8430
MEAN_ANOMALY   = 247.2661

EPHEMERIS_TYPE = 0
CLASSIFICATION_TYPE = U
NORAD_CAT_ID   = 66167
ELEMENT_SET_NO = 999
REV_AT_EPOCH   = 516
BSTAR          = .12056898E-2
MEAN_MOTION_DOT = .67251E-3
MEAN_MOTION_DDOT = 0

CCSDS_OMM_VERS = 2.0
CREATION_DATE  = 
ORIGINATOR     = 

OBJECT_NAME    = STARLINK-35578
OBJECT_ID      = 2025-240Y
CENTER_NAME    = EARTH
REF_FRAME      = TEME
TIME_SYSTEM    = UTC
MEAN_ELEMENT_THEORY = SGP/SGP4

EPOCH          = 2025-11-19T21:03:42.081696
MEAN_MOTION    = 15.49336683
ECCENTRICITY   = .00007416
INCLINATION    = 53.1595
RA_OF_ASC_NODE = 213.7196
ARG_OF_PERICENTER = 92.4572
MEAN_ANOMALY   = 267.6522

EPHEMERIS_TYPE = 0
CLASSIFICATION_TYPE = U
NORAD_CAT_ID   = 66168
ELEMENT_SET_NO = 999
REV_AT_EPOCH   = 516
BSTAR          = .12202497E-2
MEAN_MOTION_DOT = .68077E-3
MEAN_MOTION_DDOT = 0

CCSDS_OMM_VERS = 2.0
CREATION_DATE  = 
ORIGINATOR     = 

OBJECT_NAME    = STARLINK-35638
OBJECT_ID      = 2025-240Z
CENTER_NAME    = EARTH
REF_FRAME      = TEME
TIME_SYSTEM    = UTC
MEAN_ELEMENT_THEORY = SGP/SGP4

EPOCH          = 2025-11-19T21:04:41.504160
MEAN_MOTION    = 15.49330844
ECCENTRICITY   = .00011248
INCLINATION    = 53.1599
RA_OF_ASC_NODE = 213.7244
ARG_OF_PERICENTER = 89.6467
MEAN_ANOMALY   = 270.4671

EPHEMERIS_TYPE = 0
CLASSIFICATION_TYPE = U
NORAD_CAT_ID   = 66169
ELEMENT_SET_NO = 999
REV_AT_EPOCH   = 516
BSTAR          = .95456459E-3
MEAN_MOTION_DOT = .53043E-3
MEAN_MOTION_DDOT = 0

CCSDS_OMM_VERS = 2.0
CREATION_DATE  = 
ORIGINATOR     = 

OBJECT_NAME    = STARLINK-35585
OBJECT_ID      = 2025-240AA
CENTER_NAME    = EARTH
REF_FRAME      = TEME
TIME_SYSTEM    = UTC
MEAN_ELEMENT_THEORY = SGP/SGP4

EPOCH          = 2025-11-19T21:03:12.391200
MEAN_MOTION    = 15.49336288
ECCENTRICITY   = .00011569
INCLINATION    = 53.1596
RA_OF_ASC_NODE = 213.7172
ARG_OF_PERICENTER = 87.2283
MEAN_ANOMALY   = 272.8858

EPHEMERIS_TYPE = 0
CLASSIFICATION_TYPE = U
NORAD_CAT_ID   = 66170
ELEMENT_SET_NO = 999
REV_AT_EPOCH   = 516
BSTAR          = .12719379E-2
MEAN_MOTION_DOT = .71006E-3
MEAN_MOTION_DDOT = 0

CCSDS_OMM_VERS = 2.0
CREATION_DATE  = 
ORIGINATOR     = 

OBJECT_NAME    = STARLINK-35606
OBJECT_ID      = 2025-240AB
CENTER_NAME    = EARTH
REF_FRAME      = TEME
TIME_SYSTEM    = UTC
MEAN_ELEMENT_THEORY = SGP/SGP4

EPOCH          = 2025-11-19T21:02:42.778464
MEAN_MOTION    = 15.49330977
ECCENTRICITY   = .00008335
INCLINATION    = 53.1597
RA_OF_ASC_NODE = 213.7150
ARG_OF_PERICENTER = 101.1503
MEAN_ANOMALY   = 258.9600

EPHEMERIS_TYPE = 0
CLASSIFICATION_TYPE = U
NORAD_CAT_ID   = 66171
ELEMENT_SET_NO = 999
REV_AT_EPOCH   = 516
BSTAR          = .11773412E-2
MEAN_MOTION_DOT = .65633E-3
MEAN_MOTION_DDOT = 0

CCSDS_OMM_VERS = 2.0
CREATION_DATE  = 
ORIGINATOR     = 

OBJECT_NAME    = STARLINK-35627
OBJECT_ID      = 2025-240AC
CENTER_NAME    = EARTH
REF_FRAME      = TEME
TIME_SYSTEM    = UTC
MEAN_ELEMENT_THEORY = SGP/SGP4

EPOCH          = 2025-11-19T21:04:11.770464
MEAN_MOTION    = 15.49332497
ECCENTRICITY   = .00005682
INCLINATION    = 53.1597
RA_OF_ASC_NODE = 213.7219
ARG_OF_PERICENTER = 98.5932
MEAN_ANOMALY   = 261.5141

EPHEMERIS_TYPE = 0
CLASSIFICATION_TYPE = U
NORAD_CAT_ID   = 66172
ELEMENT_SET_NO = 999
REV_AT_EPOCH   = 516
BSTAR          = .10777318E-2
MEAN_MOTION_DOT = .60002E-3
MEAN_MOTION_DDOT = 0

CCSDS_OMM_VERS = 2.0
CREATION_DATE  = 
ORIGINATOR     = 

OBJECT_NAME    = STARLINK-35634
OBJECT_ID      = 2025-240AD
CENTER_NAME    = EARTH
REF_FRAME      = TEME
TIME_SYSTEM    = UTC
MEAN_ELEMENT_THEORY = SGP/SGP4

EPOCH          = 2025-11-19T21:02:13.020576
MEAN_MOTION    = 15.49333536
ECCENTRICITY   = .00008449
INCLINATION    = 53.1596
RA_OF_ASC_NODE = 213.7132
ARG_OF_PERICENTER = 102.2577
MEAN_ANOMALY   = 257.8526

EPHEMERIS_TYPE = 0
CLASSIFICATION_TYPE = U
NORAD_CAT_ID   = 66173
ELEMENT_SET_NO = 999
REV_AT_EPOCH   = 516
BSTAR          = .12055133E-2
MEAN_MOTION_DOT = .67235E-3
MEAN_MOTION_DDOT = 0

CCSDS_OMM_VERS = 2.0
CREATION_DATE  = 
ORIGINATOR     = 

OBJECT_NAME    = HTV-X1
OBJECT_ID      = 2025-241A
CENTER_NAME    = EARTH
REF_FRAME      = TEME
TIME_SYSTEM    = UTC
MEAN_ELEMENT_THEORY = SGP/SGP4

EPOCH          = 2025-11-19T07:39:24.985152
MEAN_MOTION    = 15.49817487
ECCENTRICITY   = .00041444
INCLINATION    = 51.6333
RA_OF_ASC_NODE = 258.3957
ARG_OF_PERICENTER = 86.8503
MEAN_ANOMALY   = 273.2960

EPHEMERIS_TYPE = 0
CLASSIFICATION_TYPE = U
NORAD_CAT_ID   = 66174
ELEMENT_SET_NO = 999
REV_AT_EPOCH   = 145
BSTAR          = .26247255E-3
MEAN_MOTION_DOT = .14458E-3
MEAN_MOTION_DDOT = 0

